NORAD_CAT_ID,OBJECT_NAME,OBJECT_TYPE,EPOCH,MEAN_MOTION,ECCENTRICITY,INCLINATION,RA_OF_ASC_NODE,ARG_OF_PERICENTER,MEAN_ANOMALY,BSTAR,MEAN_MOTION_DOT,MEAN_MOTION_DDOT,TLE_LINE0,TLE_LINE1,TLE_LINE2,SEMIMAJOR_AXIS,PERIOD,APOGEE,PERIGEE,DECAYED
52640.0,STARLINK-3977,PAYLOAD,2022-06-28 04:00:00,15.73160938,0.0002821,53.2138,220.2008,16.8933,96.0146,0.00010877,0.00014647,0.0,0 STARLINK-3977,1 52640U 22052AU  22179.16667824  .00014647  00000-0  10877-3 0  9997,2 52640  53.2138 220.2008 0002821  16.8933  96.0146 15.73160938  7363,6728.007,91.535,351.77,347.974,0.0
52640.0,STARLINK-3977,PAYLOAD,2022-06-28 14:00:01,15.73143125,0.000316,53.2135,218.1412,14.8077,299.1967,0.00049839,0.0006975,0.0,0 STARLINK-3977,1 52640U 22052AU  22179.58334491  .00069750  00000-0  49839-3 0  9999,2 52640  53.2135 218.1412 0003160  14.8077 299.1967 15.73143125  1303,6728.057,91.536,352.048,347.796,0.0
52640.0,STARLINK-3977,PAYLOAD,2022-06-28 22:00:00,15.73164827,0.0002938,53.2139,216.4894,17.029,25.8759,0.00043802,0.00061218,0.0,0 STARLINK-3977,1 52640U 22052AU  22179.91667824  .00061218  00000-0  43802-3 0  9990,2 52640  53.2139 216.4894 0002938  17.0290  25.8759 15.73164827  1301,6727.995,91.535,351.837,347.884,0.0
52640.0,STARLINK-3977,PAYLOAD,2022-06-29 14:00:01,15.7320522,0.0003279,53.2132,213.1923,17.9234,202.836,0.00042395,0.00059324,0.0,0 STARLINK-3977,1 52640U 22052AU  22180.58334491  .00059324  00000-0  42395-3 0  9997,2 52640  53.2132 213.1923 0003279  17.9234 202.8360 15.73205220  1305,6727.88,91.533,351.951,347.539,0.0
52640.0,STARLINK-3977,PAYLOAD,2022-06-29 20:00:01,15.73243332,0.0003057,53.2134,211.9533,18.8895,178.5849,-6.7161e-05,-0.00010058,0.0,0 STARLINK-3977,1 52640U 22052AU  22180.83334491 -.00010058  00000-0 -67161-4 0  9997,2 52640  53.2134 211.9533 0003057  18.8895 178.5849 15.73243332  7625,6727.772,91.531,351.6930000000001,347.58,0.0
52640.0,STARLINK-3977,PAYLOAD,2022-06-29 22:00:00,15.73235612,0.0002984,53.2132,211.5406,18.621,291.1017,-9.5925e-07,-7.58e-06,0.0,0 STARLINK-3977,1 52640U 22052AU  22180.91667824 -.00000758  00000-0 -95925-6 0  9992,2 52640  53.2132 211.5406 0002984  18.6210 291.1017 15.73235612  1305,6727.794,91.531,351.666,347.651,0.0
52640.0,STARLINK-3977,PAYLOAD,2022-06-30 14:00:01,15.73217354,0.0003211,53.2133,208.2433,15.159,112.4863,2.8356e-05,3.362e-05,0.0,0 STARLINK-3977,1 52640U 22052AU  22181.58334491  .00003362  00000-0  28356-4 0  9991,2 52640  53.2133 208.2433 0003211  15.1590 112.4863 15.73217354  1303,6727.846,91.532,351.871,347.55,0.0
52640.0,STARLINK-3977,PAYLOAD,2022-06-30 20:00:01,15.73213723,0.0002998,53.2138,207.0044,13.8538,90.5122,-0.00036294,-0.00051292,0.0,0 STARLINK-3977,1 52640U 22052AU  22181.83334491 -.00051292  00000-0 -36294-3 0  9995,2 52640  53.2138 207.0044 0002998  13.8538  90.5122 15.73213723  7789,6727.856,91.532,351.73800000000006,347.704,0.0
52640.0,STARLINK-3977,PAYLOAD,2022-06-30 22:00:00,15.73170248,0.0002987,53.2137,206.5914,14.2242,202.3929,0.00022973,0.00031706,0.0,0 STARLINK-3977,1 52640U 22052AU  22181.91667824  .00031706  00000-0  22973-3 0  9998,2 52640  53.2137 206.5914 0002987  14.2242 202.3929 15.73170248  1307,6727.98,91.535,351.855,347.835,0.0
52640.0,STARLINK-3977,PAYLOAD,2022-07-01 14:00:01,15.73204974,0.000331,53.2132,203.2942,14.7127,19.7413,0.00028342,0.00039358,0.0,0 STARLINK-3977,1 52640U 22052AU  22182.58334491  .00039358  00000-0  28342-3 0  9990,2 52640  53.2132 203.2942 0003310  14.7127  19.7413 15.73204974  1307,6727.880999999999,91.533,351.973,347.519,0.0
52640.0,STARLINK-3977,PAYLOAD,2022-07-01 22:00:00,15.73223082,0.0002981,53.2134,201.6427,15.4142,107.9859,-0.0001279,-0.00018555,0.0,0 STARLINK-3977,1 52640U 22052AU  22182.91667824 -.00018555  00000-0 -12790-3 0  9994,2 52640  53.2134 201.6427 0002981  15.4142 107.9859 15.73223082  1302,6727.829000000002,91.532,351.7,347.689,0.0
52640.0,STARLINK-3977,PAYLOAD,2022-07-02 14:00:01,15.73215921,0.0003202,53.2136,198.3453,11.5005,289.8397,0.00022563,0.00031189,0.0,0 STARLINK-3977,1 52640U 22052AU  22183.58334491  .00031189  00000-0  22563-3 0  9994,2 52640  53.2136 198.3453 0003202  11.5005 289.8397 15.73215921  1307,6727.85,91.532,351.869,347.561,0.0
52640.0,STARLINK-3977,PAYLOAD,2022-07-02 22:00:00,15.73228462,0.0002918999999999,53.2141,196.6935,11.764,18.5666,3.7934e-05,4.711e-05,0.0,0 STARLINK-3977,1 52640U 22052AU  22183.91667824  .00004711  00000-0  37934-4 0  9990,2 52640  53.2141 196.6935 0002919  11.7640  18.5666 15.73228462  1300,6727.814,91.532,351.64300000000014,347.715,0.0
52640.0,STARLINK-3977,PAYLOAD,2022-07-03 12:00:00,15.73180959,0.0003263,53.2141,193.80900000000003,9.4564,86.5578,7.5831e-05,0.00010026,0.0,0 STARLINK-3977,1 52640U 22052AU  22184.50001157  .00010026  00000-0  75831-4 0  9991,2 52640  53.2141 193.8090 0003263   9.4564  86.5578 15.73180959  8204,6727.949000000001,91.534,352.01,347.619,0.0
52640.0,STARLINK-3977,PAYLOAD,2022-07-03 14:00:01,15.73217872,0.0003208999999999,53.2139,193.3961,9.1812,199.051,-0.00055062,-0.00077277,0.0,0 STARLINK-3977,1 52640U 22052AU  22184.58334491 -.00077277  00000-0 -55062-3 0  9995,2 52640  53.2139 193.3961 0003209   9.1812 199.0510 15.73217872  1301,6727.844,91.532,351.86800000000005,347.55,0.0
52640.0,STARLINK-3977,PAYLOAD,2022-07-03 20:00:01,15.73154543,0.0003006,53.2142,192.1574,9.6545,175.2736,-0.00049878,-0.00069927,0.0,0 STARLINK-3977,1 52640U 22052AU  22184.83334491 -.00069927  00000-0 -49878-3 0  9994,2 52640  53.2142 192.1574 0003006   9.6545 175.2736 15.73154543  8257,6728.025,91.536,351.912,347.867,0.0
52640.0,STARLINK-3977,PAYLOAD,2022-07-03 22:00:00,15.73121618,0.0002947,53.2141,191.7448,10.824000000000002,286.3278,-0.00016312,-0.0002338,0.0,0 STARLINK-3977,1 52640U 22052AU  22184.91667824 -.00023380  00000-0 -16312-3 0  9992,2 52640  53.2141 191.7448 0002947  10.8240 286.3278 15.73121618  1301,6728.119000000002,91.538,351.966,348.001,0.0
52640.0,STARLINK-3977,PAYLOAD,2022-07-04 04:00:01,15.73111066,0.000303,53.2144,190.509,10.2435,263.5923,-6.2695000000000016e-06,-1.499e-05,0.0,0 STARLINK-3977,1 52640U 22052AU  22185.16668981 -.00001499  00000-0 -62695-5 0  9999,2 52640  53.2144 190.5090 0003030  10.2435 263.5923 15.73111066  8305,6728.149,91.538,352.052,347.975,0.0
52640.0,STARLINK-3977,PAYLOAD,2022-07-04 14:00:01,15.73133291,0.0003226,53.2143,188.448,10.171,104.6219,9.5168e-05,0.00012719,0.0,0 STARLINK-3977,1 52640U 22052AU  22185.58334491  .00012719  00000-0  95168-4 0  9996,2 52640  53.2143 188.4480 0003226  10.1710 104.6219 15.73133291  1305,6728.085,91.537,352.121,347.78,0.0
52640.0,STARLINK-3977,PAYLOAD,2022-07-04 20:00:01,15.73117918,0.0003003,53.2148,187.2094,11.6233,79.8261,0.00068162,0.00095814,0.0,0 STARLINK-3977,1 52640U 22052AU  22185.83334491  .00095814  00000-0  68162-3 0  9994,2 52640  53.2148 187.2094 0003003  11.6233  79.8261 15.73117918  8414,6728.129,91.538,352.015,347.974,0.0
52640.0,STARLINK-3977,PAYLOAD,2022-07-04 22:00:00,15.73125975,0.0003011,53.2147,186.7966,12.8856,190.7776,0.00076892,0.00108365,0.0,0 STARLINK-3977,1 52640U 22052AU  22185.91667824  .00108365  00000-0  76892-3 0  9997,2 52640  53.2147 186.7966 0003011  12.8856 190.7776 15.73125975  1305,6728.106,91.537,351.997,347.945,0.0
52640.0,STARLINK-3977,PAYLOAD,2022-07-05 12:00:00,15.732081400000002,0.0003345,53.2146,183.9123,13.9749,255.2819,0.00045367,0.00063568,0.0,0 STARLINK-3977,1 52640U 22052AU  22186.50001157  .00063568  00000-0  45367-3 0  9992,2 52640  53.2146 183.9123 0003345  13.9749 255.2819 15.73208140  8512,6727.871999999999,91.533,351.987,347.486,0.0
52640.0,STARLINK-3977,PAYLOAD,2022-07-05 14:00:01,15.73237791,0.0003306,53.2145,183.4994,14.3666,7.1219,0.00011849,0.00016069,0.0,0 STARLINK-3977,1 52640U 22052AU  22186.58334491  .00016069  00000-0  11849-3 0  9992,2 52640  53.2145 183.4994 0003306  14.3666   7.1219 15.73237791  1304,6727.7869999999975,91.531,351.87699999999984,347.42800000000005,0.0
52640.0,STARLINK-3977,PAYLOAD,2022-07-05 20:00:01,15.73229358,0.0003063,53.2147,182.2607,15.0544,343.1685,0.00030942,0.00043089,0.0,0 STARLINK-3977,1 52640U 22052AU  22186.83334491  .00043089  00000-0  30942-3 0  9997,2 52640  53.2147 182.2607 0003063  15.0544 343.1685 15.73229358  8562,6727.811,91.531,351.737,347.616,0.0
52640.0,STARLINK-3977,PAYLOAD,2022-07-05 22:00:00,15.73254423,0.0003021,53.2147,181.8482,15.9691,94.4923,-3.8677e-05,-6.062e-05,0.0,0 STARLINK-3977,1 52640U 22052AU  22186.91667824 -.00006062  00000-0 -38677-4 0  9991,2 52640  53.2147 181.8482 0003021  15.9691  94.4923 15.73254423  1301,6727.74,91.53,351.63699999999994,347.5730000000001,0.0
52640.0,STARLINK-3977,PAYLOAD,2022-07-06 04:00:00,15.73241669,0.0003112,53.2148,180.6126,13.4282,73.7741,-0.00034766,-0.00049231,0.0,0 STARLINK-3977,1 52640U 22052AU  22187.16667824 -.00049231  00000-0 -34766-3 0  9998,2 52640  53.2148 180.6126 0003112  13.4282  73.7741 15.73241669  8622,6727.776,91.531,351.735,347.548,0.0
52640.0,STARLINK-3977,PAYLOAD,2022-07-06 14:00:01,15.732451800000002,0.000318,53.2146,178.5507,10.0118,278.3795,-0.00067531,-0.00094553,0.0,0 STARLINK-3977,1 52640U 22052AU  22187.58334491 -.00094553  00000-0 -67531-3 0  9998,2 52640  53.2146 178.5507 0003180  10.0118 278.3795 15.73245180  1307,6727.766,91.531,351.771,347.492,0.0
52640.0,STARLINK-3977,PAYLOAD,2022-07-06 20:00:01,15.73153813,0.0003013,53.2149,177.312,9.6919,255.4238,0.000552,0.00077424,0.0,0 STARLINK-3977,1 52640U 22052AU  22187.83334491  .00077424  00000-0  55200-3 0  9992,2 52640  53.2149 177.3120 0003013   9.6919 255.4238 15.73153813  8728,6728.026999999999,91.536,351.9190000000001,347.865,0.0
52640.0,STARLINK-3977,PAYLOAD,2022-07-06 22:00:00,15.73168017,0.0002999,53.215,176.8994,11.2534,6.0834,0.00049057,0.00068709,0.0,0 STARLINK-3977,1 52640U 22052AU  22187.91667824  .00068709  00000-0  49057-3 0  9999,2 52640  53.2150 176.8994 0002999  11.2534   6.0834 15.73168017  1308,6727.986,91.535,351.869,347.834,0.0
